NORAD_CAT_ID,OBJECT_NAME,OBJECT_TYPE,EPOCH,MEAN_MOTION,ECCENTRICITY,INCLINATION,RA_OF_ASC_NODE,ARG_OF_PERICENTER,MEAN_ANOMALY,BSTAR,MEAN_MOTION_DOT,MEAN_MOTION_DDOT,TLE_LINE0,TLE_LINE1,TLE_LINE2,SEMIMAJOR_AXIS,PERIOD,APOGEE,PERIGEE,DECAYED
55790.0,STARLINK-5813,PAYLOAD,2024-02-20 19:46:40,14.98333301,0.0002906,69.9987,290.0724,270.6835,89.3991,3.4464e-06,-5.2e-07,0.0,0 STARLINK-5813,1 55790U 23028BB  24051.82408498 -.00000052  00000-0  34464-5 0  9990,2 55790  69.9987 290.0724 0002906 270.6835  89.3991 14.98333301 54999,6950.183,96.107,574.067,570.028,0.0
55790.0,STARLINK-5813,PAYLOAD,2024-02-20 22:58:56,14.98336623,0.0002868,69.9985,289.7358,270.3596,89.7234,4.0866e-05,3.95e-06,0.0,0 STARLINK-5813,1 55790U 23028BB  24051.95760142  .00000395  00000-0  40866-4 0  9992,2 55790  69.9985 289.7358 0002868 270.3596  89.7234 14.98336623 55022,6950.172,96.107,574.031,570.044,0.0
55790.0,STARLINK-5813,PAYLOAD,2024-02-21 02:11:12,14.98339992,0.0002822,69.9988,289.3992,270.6485,89.4351,0.00011172,1.241e-05,0.0,0 STARLINK-5813,1 55790U 23028BB  24052.09111678  .00001241  00000-0  11172-3 0  9990,2 55790  69.9988 289.3992 0002822 270.6485  89.4351 14.98339992 55035,6950.162,96.106,573.988,570.066,0.0
55790.0,STARLINK-5813,PAYLOAD,2024-02-21 08:35:47,14.98305718,0.0002321,69.9986,288.7259,272.0535,88.0358,-0.00025763,-3.163e-05,0.0,0 STARLINK-5813,1 55790U 23028BB  24052.35819102 -.00003163  00000-0 -25763-3 0  9994,2 55790  69.9986 288.7259 0002321 272.0535  88.0358 14.98305718 55073,6950.268,96.109,573.746,570.52,0.0
55790.0,STARLINK-5813,PAYLOAD,2024-02-21 15:00:20,14.98301323,0.0002565,69.9967,288.0536,269.2903,90.7962,-0.00029768,-3.64e-05,0.0,0 STARLINK-5813,1 55790U 23028BB  24052.62523824 -.00003640  00000-0 -29768-3 0  9996,2 55790  69.9967 288.0536 0002565 269.2903  90.7962 14.98301323 55125,6950.282,96.109,573.929,570.364,0.0
55790.0,STARLINK-5813,PAYLOAD,2024-02-21 19:48:44,14.98315956,0.0002615,69.9992,287.5455,281.9041,78.1825,-0.00026812,-3.289e-05,0.0,0 STARLINK-5813,1 55790U 23028BB  24052.82551181 -.00003289  00000-0 -26812-3 0  9991,2 55790  69.9992 287.5455 0002615 281.9041  78.1825 14.98315956 55144,6950.236,96.108,573.919,570.284,0.0
55790.0,STARLINK-5813,PAYLOAD,2024-02-21 21:24:51,14.98323733,0.0003009,69.9982,287.3792,271.5611,88.5203,-3.7617e-06,-1.38e-06,0.0,0 STARLINK-5813,1 55790U 23028BB  24052.89225920 -.00000138  00000-0 -37617-5 0  9994,2 55790  69.9982 287.3792 0003009 271.5611  88.5203 14.98323733 55160,6950.212,96.107,574.169,569.986,0.0
55790.0,STARLINK-5813,PAYLOAD,2024-02-22 00:37:07,14.98324023,0.0002997,69.9982,287.0426,271.8385,88.2431,4.5105e-06,-3.9e-07,0.0,0 STARLINK-5813,1 55790U 23028BB  24053.02577943 -.00000039  00000-0  45105-5 0  9995,2 55790  69.9982 287.0426 0002997 271.8385  88.2431 14.98324023 55171,6950.211,96.107,574.159,569.993,0.0
55790.0,STARLINK-5813,PAYLOAD,2024-02-22 08:37:47,14.98328705,0.0003055,69.9982,286.2003,271.3991,88.6818,2.0268e-05,1.49e-06,0.0,0 STARLINK-5813,1 55790U 23028BB  24053.35957691  .00000149  00000-0  20268-4 0  9996,2 55790  69.9982 286.2003 0003055 271.3991  88.6818 14.98328705 55238,6950.197,96.107,574.185,569.939,0.0
55790.0,STARLINK-5813,PAYLOAD,2024-02-22 19:50:43,14.98333714,0.0003074,69.9977,285.0217,269.6028,90.4779,6.8376e-06,-1.1e-07,0.0,0 STARLINK-5813,1 55790U 23028BB  24053.82689448 -.00000011  00000-0  68376-5 0  9992,2 55790  69.9977 285.0217 0003074 269.6028  90.4779 14.98333714 55297,6950.181,96.107,574.183,569.91,0.0
55790.0,STARLINK-5813,PAYLOAD,2024-02-22 21:26:51,14.9833576,0.0002986,69.9979,284.8536,268.1941,91.8876,3.9766e-05,3.82e-06,0.0,0 STARLINK-5813,1 55790U 23028BB  24053.89365220  .00000382  00000-0  39766-4 0  9998,2 55790  69.9979 284.8536 0002986 268.1941  91.8876 14.98335760 55318,6950.175,96.107,574.115,569.965,0.0
55790.0,STARLINK-5813,PAYLOAD,2024-02-23 08:39:47,14.98343615,0.0002943,69.998,283.675,275.5444,84.538,-9.0546e-06,-2.01e-06,0.0,0 STARLINK-5813,1 55790U 23028BB  24054.36096696 -.00000201  00000-0 -90546-5 0  9995,2 55790  69.9980 283.6750 0002943 275.5444  84.5380 14.98343615 55371,6950.151,96.106,574.061,569.97,0.0
55790.0,STARLINK-5813,PAYLOAD,2024-02-23 19:52:44,14.98320201,0.0003055,69.9979,282.4968,268.5111,91.5698,0.00045449,5.333e-05,0.0,0 STARLINK-5813,1 55790U 23028BB  24054.82829031  .00005333  00000-0  45449-3 0  9992,2 55790  69.9979 282.4968 0003055 268.5111  91.5698 14.98320201 55449,6950.223,96.108,574.211,569.965,0.0
55790.0,STARLINK-5813,PAYLOAD,2024-02-23 21:28:52,14.98324915,0.0003197,69.9977,282.3283,272.7793,87.3001,0.00040259,4.713e-05,0.0,0 STARLINK-5813,1 55790U 23028BB  24054.89504872  .00004713  00000-0  40259-3 0  9997,2 55790  69.9977 282.3283 0003197 272.7793  87.3001 14.98324915 55465,6950.209,96.107,574.296,569.852,0.0
55790.0,STARLINK-5813,PAYLOAD,2024-02-24 08:41:48,14.98338052,0.0002934,69.9983,281.1494,274.3527,85.7296,7.476e-05,7.99e-06,0.0,0 STARLINK-5813,1 55790U 23028BB  24055.36236665  .00000799  00000-0  74760-4 0  9997,2 55790  69.9983 281.1494 0002934 274.3527  85.7296 14.98338052 55526,6950.168,96.106,574.072,569.994,0.0
55790.0,STARLINK-5813,PAYLOAD,2024-02-24 15:06:20,14.98338344,0.0002879,69.9981,280.4769,270.4393,89.6436,-1.3695e-05,-2.56e-06,0.0,0 STARLINK-5813,1 55790U 23028BB  24055.62940722 -.00000256  00000-0 -13695-4 0  9992,2 55790  69.9981 280.4769 0002879 270.4393  89.6436 14.98338344 55575,6950.167,96.106,574.033,570.031,0.0
55790.0,STARLINK-5813,PAYLOAD,2024-02-24 21:30:53,14.98336932,0.0002836,69.9983,279.8036,270.1326,89.9508,-4.8206e-05,-6.68e-06,0.0,0 STARLINK-5813,1 55790U 23028BB  24055.89644747 -.00000668  00000-0 -48206-4 0  9992,2 55790  69.9983 279.8036 0002836 270.1326  89.9508 14.98336932 55611,6950.171,96.107,574.008,570.065,0.0
55790.0,STARLINK-5813,PAYLOAD,2024-02-25 08:43:49,14.98337782,0.0002827,69.9985,278.6251,284.06,76.0244,-9.1846e-05,-1.189e-05,0.0,0 STARLINK-5813,1 55790U 23028BB  24056.36376658 -.00001189  00000-0 -91846-4 0  9995,2 55790  69.9985 278.6251 0002827 284.0600  76.0244 14.98337782 55672,6950.169,96.106,573.999,570.069,0.0
55790.0,STARLINK-5813,PAYLOAD,2024-02-25 13:32:13,14.98336815,0.0002922,69.9993,278.12,271.3195,88.7629,-6.4962e-05,-8.68e-06,0.0,0 STARLINK-5813,1 55790U 23028BB  24056.56404402 -.00000868  00000-0 -64962-4 0  9998,2 55790  69.9993 278.1200 0002922 271.3195  88.7629 14.98336815 55712,6950.172,96.107,574.068,570.006,0.0
55790.0,STARLINK-5813,PAYLOAD,2024-02-25 21:32:53,14.98340059,0.0003009,69.9979,277.2786,270.422,89.6594,-3.2806e-05,-4.85e-06,0.0,0 STARLINK-5813,1 55790U 23028BB  24056.89783846 -.00000485  00000-0 -32806-4 0  9993,2 55790  69.9979 277.2786 0003009 270.4220  89.6594 14.98340059 55762,6950.162,96.106,574.118,569.935,0.0
55790.0,STARLINK-5813,PAYLOAD,2024-02-26 13:34:14,14.98329021,0.000276,69.9994,275.5953,272.5668,87.5175,-3.2027e-05,-4.75e-06,0.0,0 STARLINK-5813,1 55790U 23028BB  24057.56544319 -.00000475  00000-0 -32027-4 0  9992,2 55790  69.9994 275.5953 0002760 272.5668  87.5175 14.98329021 55867,6950.196,96.107,573.979,570.143,0.0
55790.0,STARLINK-5813,PAYLOAD,2024-02-26 19:58:46,14.98326736,0.0002824,69.9989,274.9221,269.0152,91.0684,-5.2672e-05,-7.21e-06,0.0,0 STARLINK-5813,1 55790U 23028BB  24057.83248491 -.00000721  00000-0 -52672-4 0  9996,2 55790  69.9989 274.9221 0002824 269.0152  91.0684 14.98326736 55890,6950.203,96.107,574.031,570.105,0.0
55790.0,STARLINK-5813,PAYLOAD,2024-02-26 21:34:54,14.98326495,0.0002806,69.9989,274.7536,269.024,91.0598,-5.6278e-05,-7.64e-06,0.0,0 STARLINK-5813,1 55790U 23028BB  24057.89924528 -.00000764  00000-0 -56278-4 0  9997,2 55790  69.9989 274.7536 0002806 269.0240  91.0598 14.98326495 55914,6950.204,96.107,574.019,570.119,0.0
55790.0,STARLINK-5813,PAYLOAD,2024-02-27 07:11:42,14.98329153,0.0002965,69.998,273.7433,270.2337,89.8482,-2.2467e-05,-3.61e-06,0.0,0 STARLINK-5813,1 55790U 23028BB  24058.29980270 -.00000361  00000-0 -22467-4 0  9994,2 55790  69.9980 273.7433 0002965 270.2337  89.8482 14.98329153 55974,6950.196,96.107,574.121,570.0,0.0
55790.0,STARLINK-5813,PAYLOAD,2024-02-27 20:00:47,14.98339293,0.0002803,69.998,272.3971,272.7253,87.3585,-0.00010327,-1.325e-05,0.0,0 STARLINK-5813,1 55790U 23028BB  24058.83387794 -.00001325  00000-0 -10327-3 0  9998,2 55790  69.9980 272.3971 0002803 272.7253  87.3585 14.98339293 56043,6950.164,96.106,573.977,570.081,0.0
55790.0,STARLINK-5813,PAYLOAD,2024-02-27 21:36:55,14.98318465,0.0002818,69.998,272.2288,270.3091,89.7745,0.00023243,2.681e-05,0.0,0 STARLINK-5813,1 55790U 23028BB  24058.90064298  .00002681  00000-0  23243-3 0  9992,2 55790  69.9980 272.2288 0002818 270.3091  89.7745 14.98318465 56067,6950.229,96.108,574.052,570.135,0.0
55790.0,STARLINK-5813,PAYLOAD,2024-02-28 07:13:43,14.9832935,0.0002884,69.998,271.2187,269.5017,90.5812,-1.7812e-05,-3.06e-06,0.0,0 STARLINK-5813,1 55790U 23028BB  24059.30120166 -.00000306  00000-0 -17812-4 0  9994,2 55790  69.9980 271.2187 0002884 269.5017  90.5812 14.98329350 56111,6950.195,96.107,574.064,570.055,0.0
55790.0,STARLINK-5813,PAYLOAD,2024-02-28 13:38:16,14.98326047,0.000293,69.9979,270.5449,268.3267,91.7557,2.3888e-05,1.92e-06,0.0,0 STARLINK-5813,1 55790U 23028BB  24059.56824263  .00000192  00000-0  23888-4 0  9992,2 55790  69.9979 270.5449 0002930 268.3267  91.7557 14.98326047 56162,6950.205,96.107,574.107,570.034,0.0
55790.0,STARLINK-5813,PAYLOAD,2024-02-28 21:38:56,14.98326084,0.0002928,69.9981,269.7034,267.8202,92.2622,2.0892e-05,1.56e-06,0.0,0 STARLINK-5813,1 55790U 23028BB  24059.90204316  .00000156  00000-0  20892-4 0  9993,2 55790  69.9981 269.7034 0002928 267.8202  92.2622 14.98326084 56211,6950.205,96.107,574.105,570.035,0.0
55790.0,STARLINK-5813,PAYLOAD,2024-02-29 15:16:24,14.98332092,0.0002928,69.9982,267.8518,267.5681,92.5142,1.6266e-05,1.01e-06,0.0,0 STARLINK-5813,1 55790U 23028BB  24060.63639969  .00000101  00000-0  16266-4 0  9991,2 55790  69.9982 267.8518 0002928 267.5681  92.5142 14.98332092 56324,6950.186,96.107,574.086,570.016,0.0
